YAHSAT 1B               
1 38245U 12016A   23134.89285632  .00000120  00000+0  00000+0 0  9999
2 38245   0.0044  84.3538 0002850 346.3812 170.6656  1.00270115 34279
AEHF-2 (USA 235)        
1 38254U 12019A   23135.16855039 -.00000165  00000+0  00000+0 0  9997
2 38254   4.0628  62.0950 0002546 340.8291 156.2045  1.00271492 40351
JCSAT-13                
1 38331U 12023A   23135.58717664 -.00000361  00000+0  00000+0 0  9993
2 38331   0.0030  50.9399 0002217  27.2302 130.2740  1.00271302 40250
VINASAT-2               
1 38332U 12023B   23134.88119892 -.00000336  00000+0  00000+0 0  9997
2 38332   0.0205  48.3985 0002437  24.6589 248.3795  1.00269198 35333
NIMIQ 6                 
1 38342U 12026A   23134.93981566 -.00000180  00000+0  00000+0 0  9999
2 38342   0.0243  69.0494 0002651 338.9679  71.6219  1.00269696 40270
CHINASAT 2A (ZX 2A)     
1 38352U 12028A   23134.87593081 -.00000300  00000+0  00000+0 0  9990
2 38352   0.0468  71.9929 0001409 313.8188 260.1253  1.00273196 40051
INTELSAT 19 (IS-19)     
1 38356U 12030A   23134.77587965 -.00000063  00000+0  00000+0 0  9996
2 38356   0.0171 292.4225 0002923 121.2472 263.8972  1.00272292 39113
ECHOSTAR 17             
1 38551U 12035A   23135.07997668 -.00000081  00000+0  00000+0 0  9997
2 38551   0.0017 339.5142 0001419  78.9755  95.7490  1.00270278 39806
METEOSAT-10 (MSG-3)     
1 38552U 12035B   23135.17300269 -.00000011  00000+0  00000+0 0  9997
2 38552   2.1099  54.8806 0000209  36.9307 203.1450  1.00277441 39896
SES-5                   
1 38652U 12036A   23135.05049418  .00000027  00000+0  00000+0 0  9998
2 38652   0.0480 297.6104 0002028 114.4411 203.6242  1.00270774 39745
TIANLIAN 1-03           
1 38730U 12040A   23135.53551543  .00000121  00000+0  00000+0 0  9995
2 38730   2.8610  87.2922 0008866 349.2317   9.6463  1.00273580 39665
INTELSAT 20 (IS-20)     
1 38740U 12043A   23135.54510355 -.00000030  00000+0  00000+0 0  9996
2 38740   0.0062 280.6914 0001440 272.4664 304.5941  1.00271956 39517
HYLAS 2                 
1 38741U 12043B   23135.17919139  .00000148  00000+0  00000+0 0  9998
2 38741   0.0623  95.2542 0001839 315.2131 277.7256  1.00272632 39528
INTELSAT 21 (IS-21)     
1 38749U 12045A   23135.52132677 -.00000290  00000+0  00000+0 0  9990
2 38749   0.0189 316.1866 0002107  98.7005 307.7819  1.00270998 39329
ASTRA 2F                
1 38778U 12051A   23135.17858124  .00000144  00000+0  00000+0 0  9999
2 38778   0.0392 231.8623 0000426 338.6867 114.5777  1.00272557 38975
GSAT-10                 
1 38779U 12051B   23135.57390973 -.00000170  00000+0  00000+0 0  9997
2 38779   0.0166 246.2923 0001322  91.6628 184.7489  1.00270936 38973
INTELSAT 23 (IS-23)     
1 38867U 12057A   23135.44922228 -.00000290  00000+0  00000+0 0  9994
2 38867   0.0120 244.9544 0001155 147.4928 309.1927  1.00269241 38788
BEIDOU-2 G6             
1 38953U 12059A   23135.54815432 -.00000179  00000+0  00000+0 0  9997
2 38953   1.7535  82.3970 0011116 314.8568 117.1422  1.00269216 38731
LUCH-5B                 
1 38977U 12061A   23134.18104856 -.00000140  00000+0  00000+0 0  9994
2 38977   8.0115  60.0506 0003375  33.9002 186.5916  1.00271657 38841
YAMAL 300K              
1 38978U 12061B   23135.51229719  .00000066  00000+0  00000+0 0  9995
2 38978   0.0136 257.3108 0000917 309.9054  33.1288  1.00271845 38554
STAR ONE C3             
1 38991U 12062A   23134.94295361 -.00000255  00000+0  00000+0 0  9994
2 38991   0.0194 291.7893 0001857 134.9096  70.1767  1.00272060 38533
EUTELSAT 21B            
1 38992U 12062B   23135.33938451  .00000124  00000+0  00000+0 0  9997
2 38992   0.0744  22.6326 0002670  34.4021 319.5643  1.00273784 38552
ECHOSTAR 16             
1 39008U 12065A   23135.59309122 -.00000287  00000+0  00000+0 0  9995
2 39008   0.0137 292.8092 0001324 135.4508 316.8105  1.00270195 38494
CHINASAT 12 (ZX 12)     
1 39017U 12067A   23135.20257666 -.00000212  00000+0  00000+0 0  9998
2 39017   0.0411  94.1393 0002716 317.3544 341.6076  1.00270914 38394
EUTELSAT 70B            
1 39020U 12069A   23134.89007878 -.00000050  00000+0  00000+0 0  9996
2 39020   0.0912  50.8701 0001231 109.9308 102.4943  1.00272697 38284
YAMAL 402               
1 39022U 12070A   23135.40813411  .00000080  00000+0  00000+0 0  9998
2 39022   0.0100 148.0450 0004085 264.1903  22.4609  1.00271208 38288
SKYNET 5D               
1 39034U 12075A   23135.10188160  .00000093  00000+0  00000+0 0  9993
2 39034   0.0704  10.9548 0003519  48.9513 262.0809  1.00272718 38193
MEXSAT 3                
1 39035U 12075B   23135.07840771 -.00000032  00000+0  00000+0 0  9997
2 39035   0.0423  81.8920 0001667 326.3406  97.7388  1.00271252 38152
TDRS 11                 
1 39070U 13004A   23135.27578911  .00000068  00000+0  00000+0 0  9993
2 39070   2.7225 356.9423 0007141  51.3180 109.5316  1.00265480 37665
AMAZONAS 3              
1 39078U 13006A   23135.37586042 -.00000288  00000+0  00000+0 0  9993
2 39078   0.0467 128.7705 0001774 314.9328 223.4589  1.00270508 37652
AZERSPACE 1             
1 39079U 13006B   23134.89285632  .00000127  00000+0  00000+0 0  9992
2 39079   0.0323  65.5281 0002265  22.9274 151.3199  1.00271735 37483
SBIRS GEO-2 (USA 241)   
1 39120U 13011A   23135.51021515 -.00000262  00000+0  00000+0 0  9994
2 39120   2.3196  36.8910 0001981  12.2090 329.5524  1.00271318 37269
EUTELSAT 117 WEST A     
1 39122U 13012A   23135.54142551 -.00000018  00000+0  00000+0 0  9993
2 39122   0.0504  89.4923 0002827 325.0834 256.5473  1.00271781 37141
ANIK G1                 
1 39127U 13014A   23134.93659057 -.00000080  00000+0  00000+0 0  9995
2 39127   0.0556 104.5298 0001268 273.9029  83.8571  1.00272087 36927
CHINASAT 11 (ZX 11)     
1 39157U 13020A   23133.85541280 -.00000296  00000+0  00000+0 0  9992
2 39157   0.0049 229.0129 0001482 160.8030 247.3326  1.00267723 36811
EUTELSAT 7B             
1 39163U 13022A   23135.05049418  .00000042  00000+0  00000+0 0  9999
2 39163   0.0725  17.7603 0005163  11.4648 228.4689  1.00270677 36638
WGS F5 (USA 243)        
1 39168U 13024A   23135.51577244 -.00000290  00000+0  00000+0 0  9996
2 39168   0.0172 278.8765 0000990 300.2609 147.0130  1.00271053 36510
SES-6                   
1 39172U 13026A   23134.87821115 -.00000268  00000+0  00000+0 0  9995
2 39172   0.0329  44.0006 0002649 357.8254 106.1814  1.00270502 36396
IRNSS-1A                
1 39199U 13034A   23132.93382861  .00000087  00000+0  00000+0 0  9996
2 39199  33.1703  80.3983 0018031 184.0294 357.1690  1.00269989 36028
MUOS-2                  
1 39206U 13036A   23134.85101573  .00000059  00000+0  00000+0 0  9998
2 39206   3.0352  32.8802 0051400 177.8749 150.8871  1.00273339 35861
ALPHASAT                
1 39215U 13038A   23135.53638708  .00000128  00000+0  00000+0 0  9998
2 39215   2.8266  10.9129 0002211  51.4364  28.5557  1.00268905 35952
INSAT-3D                
1 39216U 13038B   23135.54780566 -.00000162  00000+0  00000+0 0  9999
2 39216   0.0138 283.1184 0001065 132.7259  96.5287  1.00272116 35985
WGS F6 (USA 244)        
1 39222U 13041A   23134.93101203  .00000083  00000+0  00000+0 0  9998
2 39222   0.0111 290.3121 0000165 307.0097 195.0518  1.00270736 35743
ES'HAIL 1               
1 39233U 13044A   23134.89111646  .00000137  00000+0  00000+0 0  9990
2 39233   0.0549  16.3106 0002235  27.6644 174.6753  1.00270354 35304
GSAT-7                  
1 39234U 13044B   23135.33108737 -.00000083  00000+0  00000+0 0  9999
2 39234   0.0910  95.8469 0005759 188.8691 141.2786  1.00271116 35580
AMOS-4                  
1 39237U 13045A   23134.89007878  .00000001  00000+0  00000+0 0  9996
2 39237   0.0161 286.3201 0003099 106.2099 225.2673  1.00271922 35632
AEHF-3 (USA 246)        
1 39256U 13050A   23135.50056234  .00000130  00000+0  00000+0 0  9995
2 39256   2.4911  73.8692 0051163 188.6890 355.5570  1.00274300 35369
ASTRA 2E                
1 39285U 13056A   23134.93035503  .00000144  00000+0  00000+0 0  9990
2 39285   0.0693 326.8548 0002562  94.9098 174.0818  1.00274328 35269
FM-6                    
1 39360U 13058A   23135.54142635 -.00000022  00000+0  00000+0 0  9995
2 39360   0.0223 298.0505 0000694 324.4488  49.2784  1.00271099 35024
RADUGA-1M 3             
1 39375U 13062A   23134.89320348  .00000150  00000+0  00000+0 0  9993
2 39375   3.0722  85.9992 0001228 227.6684 275.2096  1.00272487 34800
SES-8                   
1 39460U 13071A   23134.71732017 -.00000277  00000+0  00000+0 0  9990
2 39460   0.0151 262.9079 0002684 164.6349 157.8896  1.00272845 33109
INMARSAT 5-F1           
1 39476U 13073A   23134.98244156  .00000022  00000+0  00000+0 0  9997
2 39476   0.0126 296.9928 0000526 225.2534 126.4728  1.00269322 34609
TKSAT-1 (TUPAC KATARI)  
1 39481U 13075A   23134.94060015 -.00000201  00000+0  00000+0 0  9991
2 39481   0.0200  85.4152 0002574 309.9367  88.4748  1.00268256 34522
EXPRESS-AM5             
1 39487U 13077A   23135.28174331 -.00000286  00000+0  00000+0 0  9997
2 39487   0.0177 288.5853 0001305 121.9142  63.6862  1.00268302 35018
GSAT-14                 
1 39498U 14001A   23135.54614953 -.00000082  00000+0  00000+0 0  9999
2 39498   0.0199  86.6928 0002874 217.3125 199.6210  1.00269530 34264
THAICOM 6               
1 39500U 14002A   23134.97354845 -.00000127  00000+0  00000+0 0  9991
2 39500   0.0817 104.7121 0002677 357.4449 199.2421  1.00271549 34193
TDRS 12                 
1 39504U 14004A   23134.80638734 -.00000282  00000+0  00000+0 0  9993
2 39504   3.6366 353.9489 0004911 124.9578   2.7975  1.00269858 32957
ABS-2                   
1 39508U 14006A   23135.02618809 -.00000092  00000+0  00000+0 0  9994
2 39508   0.0284  90.9325 0003577 330.1520 255.7652  1.00271262 33992
ATHENA-FIDUS            
1 39509U 14006B   23134.97063216  .00000148  00000+0  00000+0 0  9995
2 39509   0.0106  45.2893 0001517  11.2906 203.0828  1.00270789 34171
